{
    "satellites": [
        {
            "name": "starlink332",
            "title": "Starlink-332 (G11-15)",
            "tle": [
                "1 66951C 25286AC  25352.10743056 -.01656400  00000+0 -77399-2 0  3526",
                "2 66951  53.1554  23.3480 0000661  73.2115 254.8886 15.84244924    19"
            ],
            "stdMag": 5,
            "noradId": "66951",
            "tleUrl": "http://celestrak.org/NORAD/elements/supplemental/sup-gp.php?FILE=starlink&FORMAT=tle",
            "launchDate": "2025-12-07T17:58:30.000Z",
            "active": true,
            "batch": [
                {
                    "noradId": "66951",
                    "tle": [
                        "1 66951C 25286AC  25352.10743056 -.01656400  00000+0 -77399-2 0  3526",
                        "2 66951  53.1554  23.3480 0000661  73.2115 254.8886 15.84244924    19"
                    ]
                },
                {
                    "noradId": "66950",
                    "tle": [
                        "1 66950C 25286AB  25352.10604167 -.01638600  00000+0 -76527-2 0  3528",
                        "2 66950  53.1553  23.3598 0000632  75.1017 242.8148 15.84237461    13"
                    ]
                },
                {
                    "noradId": "66952",
                    "tle": [
                        "1 66952C 25286AD  25352.10743056 -.01624900  00000+0 -75913-2 0  3527",
                        "2 66952  53.1555  23.3573 0000654  74.4507 249.2737 15.84215739    19"
                    ]
                },
                {
                    "noradId": "66949",
                    "tle": [
                        "1 66949C 25286AA  25352.10465278 -.01608300  00000+0 -75107-2 0  3521",
                        "2 66949  53.1553  23.3757 0000555  77.1415 228.5486 15.84207890    15"
                    ]
                },
                {
                    "noradId": "66947",
                    "tle": [
                        "1 66947C 25286Y   25352.11020833 -.01600600  00000+0 -74829-2 0  3529",
                        "2 66947  53.1553  23.3519 0000751  77.0003 258.3147 15.84176162    11"
                    ]
                },
                {
                    "noradId": "66948",
                    "tle": [
                        "1 66948C 25286Z   25352.10256944 -.01591500  00000+0 -74345-2 0  3524",
                        "2 66948  53.1554  23.3947 0000799  81.1536 208.5330 15.84182886    18"
                    ]
                },
                {
                    "noradId": "66946",
                    "tle": [
                        "1 66946C 25286X   25352.10395833 -.01578300  00000+0 -73678-2 0  3524",
                        "2 66946  53.1554  23.3928 0000803  81.0953 213.9935 15.84184636    19"
                    ]
                },
                {
                    "noradId": "66945",
                    "tle": [
                        "1 66945C 25286W   25352.10465278 -.01570000  00000+0 -73302-2 0  3527",
                        "2 66945  53.1553  23.3939 0000773  82.6814 214.2006 15.84172548    10"
                    ]
                },
                {
                    "noradId": "66944",
                    "tle": [
                        "1 66944C 25286V   25352.10465278 -.01560200  00000+0 -72802-2 0  3521",
                        "2 66944  53.1555  23.3990 0000867  82.2154 212.2539 15.84174882    17"
                    ]
                },
                {
                    "noradId": "66943",
                    "tle": [
                        "1 66943C 25286U   25352.10534722 -.01551700  00000+0 -72441-2 0  3525",
                        "2 66943  53.1555  23.3999 0000643  79.9719 216.3950 15.84156349    17"
                    ]
                },
                {
                    "noradId": "66942",
                    "tle": [
                        "1 66942C 25286T   25352.10881944 -.01463700  00000+0 -68445-2 0  3526",
                        "2 66942  53.1556  23.3874 0000552  47.7448 266.1247 15.84029901    15"
                    ]
                },
                {
                    "noradId": "66940",
                    "tle": [
                        "1 66940C 25286R   25352.10604167 -.01533300  00000+0 -71544-2 0  3522",
                        "2 66940  53.1557  23.4061 0000641  80.0747 215.6354 15.84148621    13"
                    ]
                },
                {
                    "noradId": "66941",
                    "tle": [
                        "1 66941C 25286S   25352.10604167 -.01521800  00000+0 -71030-2 0  3525",
                        "2 66941  53.1558  23.4149 0000769  80.7756 210.6929 15.84129390    15"
                    ]
                },
                {
                    "noradId": "66939",
                    "tle": [
                        "1 66939C 25286Q   25352.10812500 -.01528500  00000+0 -71360-2 0  3524",
                        "2 66939  53.1559  23.4003 0000743  77.2037 228.3141 15.84131580    13"
                    ]
                },
                {
                    "noradId": "66938",
                    "tle": [
                        "1 66938C 25286P   25352.10326389 -.01513200  00000+0 -70552-2 0  3521",
                        "2 66938  53.1559  23.4342 0000795  69.5210 203.6754 15.84142901    17"
                    ]
                },
                {
                    "noradId": "66937",
                    "tle": [
                        "1 66937C 25286N   25352.11090278 -.01503000  00000+0 -70168-2 0  3526",
                        "2 66937  53.1561  23.4004 0000729  76.5539 238.0909 15.84104973    14"
                    ]
                },
                {
                    "noradId": "66936",
                    "tle": [
                        "1 66936C 25286M   25352.11090278 -.01497000  00000+0 -69897-2 0  3524",
                        "2 66936  53.1562  23.4052 0000656  79.6232 232.8827 15.84096284    16"
                    ]
                },
                {
                    "noradId": "66935",
                    "tle": [
                        "1 66935C 25286L   25352.10604167 -.01489900  00000+0 -69535-2 0  3529",
                        "2 66935  53.1562  23.4338 0000768  81.5763 201.0927 15.84098393    19"
                    ]
                },
                {
                    "noradId": "66934",
                    "tle": [
                        "1 66934C 25286K   25352.11090278 -.01477000  00000+0 -68934-2 0  3521",
                        "2 66934  53.1563  23.4142 0000553  79.5229 228.4267 15.84084574    14"
                    ]
                },
                {
                    "noradId": "66933",
                    "tle": [
                        "1 66933C 25286J   25352.11020833 -.01471600  00000+0 -68671-2 0  3528",
                        "2 66933  53.1563  23.4227 0000669  79.4472 222.3155 15.84083379    15"
                    ]
                },
                {
                    "noradId": "66932",
                    "tle": [
                        "1 66932C 25286H   25352.10604167 -.01462800  00000+0 -68217-2 0  3522",
                        "2 66932  53.1563  23.4482 0000774  73.1610 202.6218 15.84086847    13"
                    ]
                },
                {
                    "noradId": "66931",
                    "tle": [
                        "1 66931C 25286G   25352.10534722 -.01453900  00000+0 -67790-2 0  3526",
                        "2 66931  53.1563  23.4565 0000703  74.8797 194.7000 15.84082622    17"
                    ]
                },
                {
                    "noradId": "66930",
                    "tle": [
                        "1 66930C 25286F   25352.11020833 -.01446600  00000+0 -67476-2 0  3529",
                        "2 66930  53.1563  23.4366 0000784  79.8369 215.1922 15.84065485    13"
                    ]
                },
                {
                    "noradId": "66929",
                    "tle": [
                        "1 66929C 25286E   25352.10604167 -.01438100  00000+0 -67072-2 0  3522",
                        "2 66929  53.1564  23.4620 0000744  73.4785 195.7393 15.84060309    18"
                    ]
                },
                {
                    "noradId": "66927",
                    "tle": [
                        "1 66927C 25286C   25352.10881944 -.01432500  00000+0 -66824-2 0  3522",
                        "2 66927  53.1565  23.4530 0000782  76.4101 206.4174 15.84049270    15"
                    ]
                },
                {
                    "noradId": "66928",
                    "tle": [
                        "1 66928C 25286D   25352.10743056 -.01419800  00000+0 -66251-2 0  3526",
                        "2 66928  53.1565  23.4684 0000700  79.4228 191.2750 15.84031376    18"
                    ]
                },
                {
                    "noradId": "66926",
                    "tle": [
                        "1 66926C 25286B   25352.11020833 -.01423400  00000+0 -66432-2 0  3528",
                        "2 66926  53.1565  23.4500 0000608  86.1635 202.5088 15.84029614    19"
                    ]
                },
                {
                    "noradId": "66925",
                    "tle": [
                        "1 66925C 25286A   25352.10604167 -.01408800  00000+0 -65676-2 0  3520",
                        "2 66925  53.1565  23.4809 0000756  86.6204 173.6534 15.84038570    16"
                    ]
                }
            ]
        }
    ],
    "config": {}
}